STARLINK-3538           
1 51996U 22025AS  25245.00960339  .00003093  00000+0  21233-3 0  9997
2 51996  53.2172 146.1396 0001353  89.2677 270.8470 15.08839742192437
STARLINK-3589           
1 51997U 22025AT  25245.15311742  .00000588  00000+0  55020-4 0  9990
2 51997  53.2172 145.4925 0001340  88.5938 271.5208 15.08850026192442
STARLINK-3618           
1 51998U 22025AU  25245.11264282  .00001510  00000+0  11297-3 0  9996
2 51998  53.2173 145.6788 0001392  88.3620 271.7532 15.08838395192454
STARLINK-3667           
1 51999U 22025AV  25245.25003472  .01048295  00000+0  51133-1 0  9997
2 51999  53.2177 144.9797 0001260  83.8676 200.0467 15.15197566  5851
STARLINK-3653           
1 52000U 22025AW  25245.09791453  .00000493  00000+0  49054-4 0  9995
2 52000  53.2179 145.6574 0001319  92.7293 267.3850 15.08840782192459
STARLINK-3659           
1 52001U 22025AX  25245.10992498  .00000740  00000+0  64549-4 0  9991
2 52001  53.2178 145.6992 0001203  90.3809 269.7321 15.08843478192456
STARLINK-3668           
1 52002U 22025AY  25245.04272478 -.00000117  00000+0  10727-4 0  9992
2 52002  53.2180 146.0297 0001430 117.8974 242.2163 15.08850315192440
STARLINK-3722           
1 52089U 22029B   25244.63918138  .00011366  00000+0  72389-3 0  9993
2 52089  53.2161 217.7689 0002751  59.3462 300.7801 15.09201696192110
STARLINK-3712           
1 52090U 22029C   25244.96268495  .00000172  00000+0  28895-4 0  9992
2 52090  53.2175 216.3497 0001389  87.4745 272.6406 15.08835511192162
STARLINK-3716           
1 52092U 22029E   25244.96636261  .00000508  00000+0  50003-4 0  9993
2 52092  53.2179 216.3339 0001414  87.4301 272.6853 15.08841239192160
STARLINK-3673           
1 52093U 22029F   25245.22124387 -.00000906  00000+0 -38872-4 0  9999
2 52093  53.2165 215.1971 0001353  85.2391 274.8756 15.08835438192207
STARLINK-3714           
1 52094U 22029G   25245.22396081  .00000622  00000+0  57173-4 0  9990
2 52094  53.2169 215.1752 0001370  84.1184 275.9964 15.08840772192206
STARLINK-3701           
1 52095U 22029H   25245.21293492  .00010812  00000+0  69574-3 0  9991
2 52095  53.2169 215.2251 0001302  92.2394 267.8747 15.08872106192205
STARLINK-3717           
1 52096U 22029J   25245.19176170 -.00006324  00000+0 -37939-3 0  9997
2 52096  53.2166 205.3219 0001397  99.2057 260.9093 15.08859546192328
STARLINK-3665           
1 52098U 22029L   25245.21660141  .00000177  00000+0  29233-4 0  9995
2 52098  53.2173 215.2076 0001360  88.1457 271.9691 15.08839546192201
STARLINK-3702           
1 52100U 22029N   25245.20926383 -.00002650  00000+0 -14856-3 0  9995
2 52100  53.2169 215.2425 0001183  92.7438 267.3690 15.08816430192206
