[{"OBJECT_NAME":"STARLINK-3538","OBJECT_ID":"2022-025AS","EPOCH":"2025-09-02T00:13:49.732896","MEAN_MOTION":15.08839742,"ECCENTRICITY":0.00013538,"INCLINATION":53.2172,"RA_OF_ASC_NODE":146.1396,"ARG_OF_PERICENTER":89.2677,"MEAN_ANOMALY":270.847,"EPHEMERIS_TYPE":0,"CLASSIFICATION_TYPE":"U","NORAD_CAT_ID":51996,"ELEMENT_SET_NO":999,"REV_AT_EPOCH":19243,"BSTAR":0.00021233478,"MEAN_MOTION_DOT":3.093e-5,"MEAN_MOTION_DDOT":0},{"OBJECT_NAME":"STARLINK-3589","OBJECT_ID":"2022-025AT","EPOCH":"2025-09-02T03:40:29.345088","MEAN_MOTION":15.08850026,"ECCENTRICITY":0.00013405,"INCLINATION":53.2172,"RA_OF_ASC_NODE":145.4925,"ARG_OF_PERICENTER":88.5938,"MEAN_ANOMALY":271.5208,"EPHEMERIS_TYPE":0,"CLASSIFICATION_TYPE":"U","NORAD_CAT_ID":51997,"ELEMENT_SET_NO":999,"REV_AT_EPOCH":19244,"BSTAR":5.5020303e-5,"MEAN_MOTION_DOT":5.88e-6,"MEAN_MOTION_DDOT":0},{"OBJECT_NAME":"STARLINK-3618","OBJECT_ID":"2022-025AU","EPOCH":"2025-09-02T02:42:12.339648","MEAN_MOTION":15.08838395,"ECCENTRICITY":0.00013924,"INCLINATION":53.2173,"RA_OF_ASC_NODE":145.6788,"ARG_OF_PERICENTER":88.362,"MEAN_ANOMALY":271.7532,"EPHEMERIS_TYPE":0,"CLASSIFICATION_TYPE":"U","NORAD_CAT_ID":51998,"ELEMENT_SET_NO":999,"REV_AT_EPOCH":19245,"BSTAR":0.00011297075,"MEAN_MOTION_DOT":1.51e-5,"MEAN_MOTION_DDOT":0},{"OBJECT_NAME":"STARLINK-3667","OBJECT_ID":"2022-025AV","EPOCH":"2025-09-02T06:00:02.999808","MEAN_MOTION":15.15197566,"ECCENTRICITY":0.00012604,"INCLINATION":53.2177,"RA_OF_ASC_NODE":144.9797,"ARG_OF_PERICENTER":83.8676,"MEAN_ANOMALY":200.0467,"EPHEMERIS_TYPE":0,"CLASSIFICATION_TYPE":"U","NORAD_CAT_ID":51999,"ELEMENT_SET_NO":999,"REV_AT_EPOCH":585,"BSTAR":0.051133288,"MEAN_MOTION_DOT":0.01048295,"MEAN_MOTION_DDOT":0},{"OBJECT_NAME":"STARLINK-3653","OBJECT_ID":"2022-025AW","EPOCH":"2025-09-02T02:20:59.815392","MEAN_MOTION":15.08840782,"ECCENTRICITY":0.00013199,"INCLINATION":53.2179,"RA_OF_ASC_NODE":145.6574,"ARG_OF_PERICENTER":92.7293,"MEAN_ANOMALY":267.385,"EPHEMERIS_TYPE":0,"CLASSIFICATION_TYPE":"U","NORAD_CAT_ID":52000,"ELEMENT_SET_NO":999,"REV_AT_EPOCH":19245,"BSTAR":4.9054119e-5,"MEAN_MOTION_DOT":4.93e-6,"MEAN_MOTION_DDOT":0},{"OBJECT_NAME":"STARLINK-3659","OBJECT_ID":"2022-025AX","EPOCH":"2025-09-02T02:38:17.518272","MEAN_MOTION":15.08843478,"ECCENTRICITY":0.00012039,"INCLINATION":53.2178,"RA_OF_ASC_NODE":145.6992,"ARG_OF_PERICENTER":90.3809,"MEAN_ANOMALY":269.7321,"EPHEMERIS_TYPE":0,"CLASSIFICATION_TYPE":"U","NORAD_CAT_ID":52001,"ELEMENT_SET_NO":999,"REV_AT_EPOCH":19245,"BSTAR":6.4548947e-5,"MEAN_MOTION_DOT":7.4e-6,"MEAN_MOTION_DDOT":0},{"OBJECT_NAME":"STARLINK-3668","OBJECT_ID":"2022-025AY","EPOCH":"2025-09-02T01:01:31.420992","MEAN_MOTION":15.08850315,"ECCENTRICITY":0.00014303,"INCLINATION":53.218,"RA_OF_ASC_NODE":146.0297,"ARG_OF_PERICENTER":117.8974,"MEAN_ANOMALY":242.2163,"EPHEMERIS_TYPE":0,"CLASSIFICATION_TYPE":"U","NORAD_CAT_ID":52002,"ELEMENT_SET_NO":999,"REV_AT_EPOCH":19244,"BSTAR":1.0726961e-5,"MEAN_MOTION_DOT":-1.17e-6,"MEAN_MOTION_DDOT":0},{"OBJECT_NAME":"STARLINK-3722","OBJECT_ID":"2022-029B","EPOCH":"2025-09-01T15:20:25.271232","MEAN_MOTION":15.09201696,"ECCENTRICITY":0.0002751,"INCLINATION":53.2161,"RA_OF_ASC_NODE":217.7689,"ARG_OF_PERICENTER":59.3462,"MEAN_ANOMALY":300.7801,"EPHEMERIS_TYPE":0,"CLASSIFICATION_TYPE":"U","NORAD_CAT_ID":52089,"ELEMENT_SET_NO":999,"REV_AT_EPOCH":19211,"BSTAR":0.0007238883,"MEAN_MOTION_DOT":0.00011366,"MEAN_MOTION_DDOT":0},{"OBJECT_NAME":"STARLINK-3712","OBJECT_ID":"2022-029C","EPOCH":"2025-09-01T23:06:15.979680","MEAN_MOTION":15.08835511,"ECCENTRICITY":0.00013892,"INCLINATION":53.2175,"RA_OF_ASC_NODE":216.3497,"ARG_OF_PERICENTER":87.4745,"MEAN_ANOMALY":272.6406,"EPHEMERIS_TYPE":0,"CLASSIFICATION_TYPE":"U","NORAD_CAT_ID":52090,"ELEMENT_SET_NO":999,"REV_AT_EPOCH":19216,"BSTAR":2.8895286e-5,"MEAN_MOTION_DOT":1.72e-6,"MEAN_MOTION_DDOT":0},{"OBJECT_NAME":"STARLINK-3716","OBJECT_ID":"2022-029E","EPOCH":"2025-09-01T23:11:33.729504","MEAN_MOTION":15.08841239,"ECCENTRICITY":0.00014146,"INCLINATION":53.2179,"RA_OF_ASC_NODE":216.3339,"ARG_OF_PERICENTER":87.4301,"MEAN_ANOMALY":272.6853,"EPHEMERIS_TYPE":0,"CLASSIFICATION_TYPE":"U","NORAD_CAT_ID":52092,"ELEMENT_SET_NO":999,"REV_AT_EPOCH":19216,"BSTAR":5.0003219e-5,"MEAN_MOTION_DOT":5.08e-6,"MEAN_MOTION_DDOT":0},{"OBJECT_NAME":"STARLINK-3673","OBJECT_ID":"2022-029F","EPOCH":"2025-09-02T05:18:35.470368","MEAN_MOTION":15.08835438,"ECCENTRICITY":0.00013536,"INCLINATION":53.2165,"RA_OF_ASC_NODE":215.1971,"ARG_OF_PERICENTER":85.2391,"MEAN_ANOMALY":274.8756,"EPHEMERIS_TYPE":0,"CLASSIFICATION_TYPE":"U","NORAD_CAT_ID":52093,"ELEMENT_SET_NO":999,"REV_AT_EPOCH":19220,"BSTAR":-3.8871551e-5,"MEAN_MOTION_DOT":-9.06e-6,"MEAN_MOTION_DDOT":0},{"OBJECT_NAME":"STARLINK-3714","OBJECT_ID":"2022-029G","EPOCH":"2025-09-02T05:22:30.213984","MEAN_MOTION":15.08840772,"ECCENTRICITY":0.000137,"INCLINATION":53.2169,"RA_OF_ASC_NODE":215.1752,"ARG_OF_PERICENTER":84.1184,"MEAN_ANOMALY":275.9964,"EPHEMERIS_TYPE":0,"CLASSIFICATION_TYPE":"U","NORAD_CAT_ID":52094,"ELEMENT_SET_NO":999,"REV_AT_EPOCH":19220,"BSTAR":5.7172977e-5,"MEAN_MOTION_DOT":6.22e-6,"MEAN_MOTION_DDOT":0},{"OBJECT_NAME":"STARLINK-3701","OBJECT_ID":"2022-029H","EPOCH":"2025-09-02T05:06:37.577088","MEAN_MOTION":15.08872106,"ECCENTRICITY":0.00013021,"INCLINATION":53.2169,"RA_OF_ASC_NODE":215.2251,"ARG_OF_PERICENTER":92.2394,"MEAN_ANOMALY":267.8747,"EPHEMERIS_TYPE":0,"CLASSIFICATION_TYPE":"U","NORAD_CAT_ID":52095,"ELEMENT_SET_NO":999,"REV_AT_EPOCH":19220,"BSTAR":0.00069573976,"MEAN_MOTION_DOT":0.00010812,"MEAN_MOTION_DDOT":0},{"OBJECT_NAME":"STARLINK-3717","OBJECT_ID":"2022-029J","EPOCH":"2025-09-02T04:36:08.210880","MEAN_MOTION":15.08859546,"ECCENTRICITY":0.00013976,"INCLINATION":53.2166,"RA_OF_ASC_NODE":205.3219,"ARG_OF_PERICENTER":99.2057,"MEAN_ANOMALY":260.9093,"EPHEMERIS_TYPE":0,"CLASSIFICATION_TYPE":"U","NORAD_CAT_ID":52096,"ELEMENT_SET_NO":999,"REV_AT_EPOCH":19232,"BSTAR":-0.00037938667,"MEAN_MOTION_DOT":-6.324e-5,"MEAN_MOTION_DDOT":0},{"OBJECT_NAME":"STARLINK-3665","OBJECT_ID":"2022-029L","EPOCH":"2025-09-02T05:11:54.361824","MEAN_MOTION":15.08839546,"ECCENTRICITY":0.00013605,"INCLINATION":53.2173,"RA_OF_ASC_NODE":215.2076,"ARG_OF_PERICENTER":88.1457,"MEAN_ANOMALY":271.9691,"EPHEMERIS_TYPE":0,"CLASSIFICATION_TYPE":"U","NORAD_CAT_ID":52098,"ELEMENT_SET_NO":999,"REV_AT_EPOCH":19220,"BSTAR":2.9232622e-5,"MEAN_MOTION_DOT":1.77e-6,"MEAN_MOTION_DDOT":0},{"OBJECT_NAME":"STARLINK-3702","OBJECT_ID":"2022-029N","EPOCH":"2025-09-02T05:01:20.394912","MEAN_MOTION":15.0881643,"ECCENTRICITY":0.00011835,"INCLINATION":53.2169,"RA_OF_ASC_NODE":215.2425,"ARG_OF_PERICENTER":92.7438,"MEAN_ANOMALY":267.369,"EPHEMERIS_TYPE":0,"CLASSIFICATION_TYPE":"U","NORAD_CAT_ID":52100,"ELEMENT_SET_NO":999,"REV_AT_EPOCH":19220,"BSTAR":-0.00014855761,"MEAN_MOTION_DOT":-2.65e-5,"MEAN_MOTION_DDOT":0}]
